"""Test data."""

st_response = [
    {
        "CCSDS_OMM_VERS": "3.0",
        "COMMENT": "GENERATED VIA SPACE-TRACK.ORG API",
        "CREATION_DATE": "2024-10-27T03:28:15",
        "ORIGINATOR": "18 SPCS",
        "OBJECT_NAME": "ISS (NAUKA)",
        "OBJECT_ID": "2021-066A",
        "CENTER_NAME": "EARTH",
        "REF_FRAME": "TEME",
        "TIME_SYSTEM": "UTC",
        "MEAN_ELEMENT_THEORY": "SGP4",
        "EPOCH": "2024-10-26T17:56:01.784832",
        "MEAN_MOTION": "15.50479226",
        "ECCENTRICITY": "0.00091460",
        "INCLINATION": "51.6396",
        "RA_OF_ASC_NODE": "23.7404",
        "ARG_OF_PERICENTER": "107.1468",
        "MEAN_ANOMALY": "253.0523",
        "EPHEMERIS_TYPE": "0",
        "CLASSIFICATION_TYPE": "U",
        "NORAD_CAT_ID": "49044",
        "ELEMENT_SET_NO": "999",
        "REV_AT_EPOCH": "47845",
        "BSTAR": "0.00072589000000",
        "MEAN_MOTION_DOT": "0.00041962",
        "MEAN_MOTION_DDOT": "0.0000000000000",
        "SEMIMAJOR_AXIS": "6793.463",
        "PERIOD": "92.875",
        "APOAPSIS": "421.541",
        "PERIAPSIS": "409.115",
        "OBJECT_TYPE": "PAYLOAD",
        "RCS_SIZE": "LARGE",
        "COUNTRY_CODE": "CIS",
        "LAUNCH_DATE": "2021-07-21",
        "SITE": "TTMTR",
        "DECAY_DATE": None,
        "FILE": "4535278",
        "GP_ID": "271631783",
        "TLE_LINE0": "0 ISS (NAUKA)",
        "TLE_LINE1": "1 49044U 21066A   24300.74724288  .00041962  00000-0  72589-3 0  9993",  # noqa
        "TLE_LINE2": "2 49044  51.6396  23.7404 0009146 107.1468 253.0523 15.50479226478459", # noqa
    }
]

multi_response = [
    {
        "CCSDS_OMM_VERS": "3.0",
        "COMMENT": "GENERATED VIA SPACE-TRACK.ORG API",
        "CREATION_DATE": "2024-10-26T06:46:19",
        "ORIGINATOR": "18 SPCS",
        "OBJECT_NAME": "LUCH",
        "OBJECT_ID": "1994-082A",
        "CENTER_NAME": "EARTH",
        "REF_FRAME": "TEME",
        "TIME_SYSTEM": "UTC",
        "MEAN_ELEMENT_THEORY": "SGP4",
        "EPOCH": "2024-10-24T22:34:55.690176",
        "MEAN_MOTION": "1.00270563",
        "ECCENTRICITY": "0.00087370",
        "INCLINATION": "14.7978",
        "RA_OF_ASC_NODE": "359.2543",
        "ARG_OF_PERICENTER": "191.5112",
        "MEAN_ANOMALY": "168.4618",
        "EPHEMERIS_TYPE": "0",
        "CLASSIFICATION_TYPE": "U",
        "NORAD_CAT_ID": "23426",
        "ELEMENT_SET_NO": "999",
        "REV_AT_EPOCH": "10934",
        "BSTAR": "0.00000000000000",
        "MEAN_MOTION_DOT": "-0.00000136",
        "MEAN_MOTION_DDOT": "0.0000000000000",
        "SEMIMAJOR_AXIS": "42165.075",
        "PERIOD": "1436.114",
        "APOAPSIS": "35823.779",
        "PERIAPSIS": "35750.100",
        "OBJECT_TYPE": "PAYLOAD",
        "RCS_SIZE": "LARGE",
        "COUNTRY_CODE": "CIS",
        "LAUNCH_DATE": "1994-12-16",
        "SITE": "TTMTR",
        "DECAY_DATE": None,
        "FILE": "4534436",
        "GP_ID": "271560282",
        "TLE_LINE0": "0 LUCH",
        "TLE_LINE1": "1 23426U 94082A   24298.94092234 -.00000136  00000-0  00000+0 0  9998",# noqa
        "TLE_LINE2": "2 23426  14.7978 359.2543 0008737 191.5112 168.4618  1.00270563109346",# noqa
    },
    {
        "CCSDS_OMM_VERS": "3.0",
        "COMMENT": "GENERATED VIA SPACE-TRACK.ORG API",
        "CREATION_DATE": "2024-10-28T02:39:52",
        "ORIGINATOR": "18 SPCS",
        "OBJECT_NAME": "ISS (NAUKA)",
        "OBJECT_ID": "2021-066A",
        "CENTER_NAME": "EARTH",
        "REF_FRAME": "TEME",
        "TIME_SYSTEM": "UTC",
        "MEAN_ELEMENT_THEORY": "SGP4",
        "EPOCH": "2024-10-27T17:08:11.147424",
        "MEAN_MOTION": "15.50572509",
        "ECCENTRICITY": "0.00091030",
        "INCLINATION": "51.6396",
        "RA_OF_ASC_NODE": "18.9474",
        "ARG_OF_PERICENTER": "109.9165",
        "MEAN_ANOMALY": "250.2805",
        "EPHEMERIS_TYPE": "0",
        "CLASSIFICATION_TYPE": "U",
        "NORAD_CAT_ID": "49044",
        "ELEMENT_SET_NO": "999",
        "REV_AT_EPOCH": "47845",
        "BSTAR": "0.00084763000000",
        "MEAN_MOTION_DOT": "0.00049286",
        "MEAN_MOTION_DDOT": "0.0000000000000",
        "SEMIMAJOR_AXIS": "6793.190",
        "PERIOD": "92.869",
        "APOAPSIS": "421.239",
        "PERIAPSIS": "408.872",
        "OBJECT_TYPE": "PAYLOAD",
        "RCS_SIZE": "LARGE",
        "COUNTRY_CODE": "CIS",
        "LAUNCH_DATE": "2021-07-21",
        "SITE": "TTMTR",
        "DECAY_DATE": None,
        "FILE": "4536275",
        "GP_ID": "271714481",
        "TLE_LINE0": "0 ISS (NAUKA)",
        "TLE_LINE1": "1 49044U 21066A   24301.71401791  .00049286  00000-0  84763-3 0  9996",# noqa
        "TLE_LINE2": "2 49044  51.6396  18.9474 0009103 109.9165 250.2805 15.50572509478459",# noqa
    },
]

tle_data = {
    "49044": [
        "1 49044U 21066A   24300.74724288  .00041962  00000-0  72589-3 0  9993",
        "2 49044  51.6396  23.7404 0009146 107.1468 253.0523 15.50479226478459",
    ],
    "78900": [],
    "67006": [
        "1 49044U 21066A   24300.74724288  .00041962  00000-0  72589-3 0  9993",
        "2 49044  51.6396  23.7404 0009146 107.1468 253.0523 15.50479226478459",
    ],
}
